[{"OBJECT_NAME":"TANSTAAFL-2","OBJECT_ID":"2024-247B","EPOCH":"2026-03-08T04:58:51.015360","MEAN_MOTION":15.28016845,"ECCENTRICITY":0.00030723,"INCLINATION":44.988,"RA_OF_ASC_NODE":125.0934,"ARG_OF_PERICENTER":298.8909,"MEAN_ANOMALY":61.1666,"EPHEMERIS_TYPE":0,"CLASSIFICATION_TYPE":"U","NORAD_CAT_ID":62378,"ELEMENT_SET_NO":999,"REV_AT_EPOCH":6750,"BSTAR":0.00050871624,"MEAN_MOTION_DOT":0.00013897,"MEAN_MOTION_DDOT":0},{"OBJECT_NAME":"STARLINK-34097","OBJECT_ID":"2025-095P","EPOCH":"2026-03-09T07:49:32.924928","MEAN_MOTION":15.2757957,"ECCENTRICITY":6.263e-5,"INCLINATION":42.9972,"RA_OF_ASC_NODE":178.1411,"ARG_OF_PERICENTER":237.0962,"MEAN_ANOMALY":122.9829,"EPHEMERIS_TYPE":0,"CLASSIFICATION_TYPE":"U","NORAD_CAT_ID":63903,"ELEMENT_SET_NO":999,"REV_AT_EPOCH":4772,"BSTAR":0.00096946773,"MEAN_MOTION_DOT":0.00026511,"MEAN_MOTION_DDOT":0}]
