TANSTAAFL-2             
1 62378U 24247B   26067.20753490  .00013897  00000+0  50872-3 0  9998
2 62378  44.9880 125.0934 0003072 298.8909  61.1666 15.28016845 67506
STARLINK-34097          
1 63903U 25095P   26068.32607552  .00026511  00000+0  96947-3 0  9996
2 63903  42.9972 178.1411 0000626 237.0962 122.9829 15.27579570 47723
